[
    {
        "Altitude(m)": 604983.0530755678,
        "Argument of Periapsis(deg)": 0.0,
        "Eccentricity": 0.0,
        "Inclination(deg)": 60.0,
        "Latitude(deg)": -0.09273669909818591,
        "Longitude(deg)": -59.91608355056443,
        "Mean Anomaly(deg)": -180.0,
        "RAAN(deg)": 220.00000000000003,
        "Satellite Name": "Test1 979",
        "Satellite Number": 979,
        "Semi-Major Axis(m)": 6980739.136638005,
        "Time(s)": 0
    },
    {
        "Altitude(m)": 605055.3331546686,
        "Argument of Periapsis(deg)": 0.00010418945913296404,
        "Eccentricity": 0.0,
        "Inclination(deg)": 60.0,
        "Latitude(deg)": -0.6331464302103387,
        "Longitude(deg)": -59.647958352092004,
        "Mean Anomaly(deg)": -179.37989385453818,
        "RAAN(deg)": 219.99957995086027,
        "Satellite Name": "Test1 979",
        "Satellite Number": 979,
        "Semi-Major Axis(m)": 6980739.136638005,
        "Time(s)": 10
    },
    {
        "Altitude(m)": 605130.8222923285,
        "Argument of Periapsis(deg)": 0.0002083789182659281,
        "Eccentricity": 0.0,
        "Inclination(deg)": 60.0,
        "Latitude(deg)": -1.1735252387921042,
        "Longitude(deg)": -59.379775508567775,
        "Mean Anomaly(deg)": -178.75978770907636,
        "RAAN(deg)": 219.9991599017205,
        "Satellite Name": "Test1 979",
        "Satellite Number": 979,
        "Semi-Major Axis(m)": 6980739.136638005,
        "Time(s)": 20
    },
    {
        "Altitude(m)": 605209.5095249474,
        "Argument of Periapsis(deg)": 0.00031256837739889213,
        "Eccentricity": 0.0,
        "Inclination(deg)": 60.0,
        "Latitude(deg)": -1.7138560443710855,
        "Longitude(deg)": -59.11148063221263,
        "Mean Anomaly(deg)": -178.13968156361452,
        "RAAN(deg)": 219.99873985258077,
        "Satellite Name": "Test1 979",
        "Satellite Number": 979,
        "Semi-Major Axis(m)": 6980739.136638005,
        "Time(s)": 30
    },
    {
        "Altitude(m)": 605291.3823649914,
        "Argument of Periapsis(deg)": 0.0004167578365318562,
        "Eccentricity": 0.0,
        "Inclination(deg)": 60.0,
        "Latitude(deg)": -2.2541217484221394,
        "Longitude(deg)": -58.84301876745098,
        "Mean Anomaly(deg)": -177.51957541815267,
        "RAAN(deg)": 219.99831980344106,
        "Satellite Name": "Test1 979",
        "Satellite Number": 979,
        "Semi-Major Axis(m)": 6980739.136638005,
        "Time(s)": 40
    },
    {
        "Altitude(m)": 605376.426804331,
        "Argument of Periapsis(deg)": 0.0005209472956648203,
        "Eccentricity": 0.0,
        "Inclination(deg)": 60.0,
        "Latitude(deg)": -2.79430522445654,
        "Longitude(deg)": -58.57433536749054,
        "Mean Anomaly(deg)": -176.89946927269082,
        "RAAN(deg)": 219.9978997543013,
        "Satellite Name": "Test1 979",
        "Satellite Number": 979,
        "Semi-Major Axis(m)": 6980739.136638005,
        "Time(s)": 50
    },
    {
        "Altitude(m)": 605464.6273183047,
        "Argument of Periapsis(deg)": 0.0006251367547977843,
        "Eccentricity": 0.0,
        "Inclination(deg)": 60.0,
        "Latitude(deg)": -3.334389308069391,
        "Longitude(deg)": -58.30537575794588,
        "Mean Anomaly(deg)": -176.279363127229,
        "RAAN(deg)": 219.99747970516154,
        "Satellite Name": "Test1 979",
        "Satellite Number": 979,
        "Semi-Major Axis(m)": 6980739.136638005,
        "Time(s)": 60
    },
    {
        "Altitude(m)": 605555.9668705374,
        "Argument of Periapsis(deg)": 0.0007293262139307483,
        "Eccentricity": 0.0,
        "Inclination(deg)": 60.0,
        "Latitude(deg)": -3.8743567869346744,
        "Longitude(deg)": -58.0360846003491,
        "Mean Anomaly(deg)": -175.65925698176716,
        "RAAN(deg)": 219.9970596560218,
        "Satellite Name": "Test1 979",
        "Satellite Number": 979,
        "Semi-Major Axis(m)": 6980739.136638005,
        "Time(s)": 70
    },
    {
        "Altitude(m)": 605650.4269184946,
        "Argument of Periapsis(deg)": 0.0008335156730637124,
        "Eccentricity": 0.0,
        "Inclination(deg)": 60.0,
        "Latitude(deg)": -4.414190390733145,
        "Longitude(deg)": -57.76640686839335,
        "Mean Anomaly(deg)": -175.0391508363053,
        "RAAN(deg)": 219.9966396068821,
        "Satellite Name": "Test1 979",
        "Satellite Number": 979,
        "Semi-Major Axis(m)": 6980739.136638005,
        "Time(s)": 80
    },
    {
        "Altitude(m)": 605747.9874198036,
        "Argument of Periapsis(deg)": 0.0009377051321966765,
        "Eccentricity": 0.0,
        "Inclination(deg)": 60.0,
        "Latitude(deg)": -4.953872780999628,
        "Longitude(deg)": -57.496287311133585,
        "Mean Anomaly(deg)": -174.41904469084352,
        "RAAN(deg)": 219.9962195577423,
        "Satellite Name": "Test1 979",
        "Satellite Number": 979,
        "Semi-Major Axis(m)": 6980739.136638005,
        "Time(s)": 90
    },
    {
        "Altitude(m)": 605848.6268392735,
        "Argument of Periapsis(deg)": 0.0010418945913296407,
        "Eccentricity": 0.0,
        "Inclination(deg)": 60.0,
        "Latitude(deg)": -5.49338654087569,
        "Longitude(deg)": -57.225669915987275,
        "Mean Anomaly(deg)": -173.7989385453817,
        "RAAN(deg)": 219.9957995086026,
        "Satellite Name": "Test1 979",
        "Satellite Number": 979,
        "Semi-Major Axis(m)": 6980739.136638005,
        "Time(s)": 100
    },
    {
        "Altitude(m)": 605952.3221566839,
        "Argument of Periapsis(deg)": 0.0011460840504626045,
        "Eccentricity": 0.0,
        "Inclination(deg)": 60.0,
        "Latitude(deg)": -6.0327141647554,
        "Longitude(deg)": -56.95449888438229,
        "Mean Anomaly(deg)": -173.1788323999199,
        "RAAN(deg)": 219.99537945946284,
        "Satellite Name": "Test1 979",
        "Satellite Number": 979,
        "Semi-Major Axis(m)": 6980739.136638005,
        "Time(s)": 110
    },
    {
        "Altitude(m)": 606059.0488752918,
        "Argument of Periapsis(deg)": 0.0012502735095955685,
        "Eccentricity": 0.0,
        "Inclination(deg)": 60.0,
        "Latitude(deg)": -6.571838047807864,
        "Longitude(deg)": -56.68271809427396,
        "Mean Anomaly(deg)": -172.55872625445807,
        "RAAN(deg)": 219.99495941032308,
        "Satellite Name": "Test1 979",
        "Satellite Number": 979,
        "Semi-Major Axis(m)": 6980739.136638005,
        "Time(s)": 120
    },
    {
        "Altitude(m)": 606168.7810310755,
        "Argument of Periapsis(deg)": 0.0013544629687285324,
        "Eccentricity": 0.0,
        "Inclination(deg)": 60.0,
        "Latitude(deg)": -7.110740475363439,
        "Longitude(deg)": -56.41027056237661,
        "Mean Anomaly(deg)": -171.93862010899622,
        "RAAN(deg)": 219.99453936118334,
        "Satellite Name": "Test1 979",
        "Satellite Number": 979,
        "Semi-Major Axis(m)": 6980739.136638005,
        "Time(s)": 130
    },
    {
        "Altitude(m)": 606281.4912026599,
        "Argument of Periapsis(deg)": 0.0014586524278614966,
        "Eccentricity": 0.0,
        "Inclination(deg)": 60.0,
        "Latitude(deg)": -7.649403612150579,
        "Longitude(deg)": -56.13709941895368,
        "Mean Anomaly(deg)": -171.3185139635344,
        "RAAN(deg)": 219.99411931204364,
        "Satellite Name": "Test1 979",
        "Satellite Number": 979,
        "Semi-Major Axis(m)": 6980739.136638005,
        "Time(s)": 140
    },
    {
        "Altitude(m)": 606397.1505220238,
        "Argument of Periapsis(deg)": 0.0015628418869944607,
        "Eccentricity": 0.0,
        "Inclination(deg)": 60.0,
        "Latitude(deg)": -8.187809491366243,
        "Longitude(deg)": -55.86314736939033,
        "Mean Anomaly(deg)": -170.69840781807255,
        "RAAN(deg)": 219.99369926290387,
        "Satellite Name": "Test1 979",
        "Satellite Number": 979,
        "Semi-Major Axis(m)": 6980739.136638005,
        "Time(s)": 150
    },
    {
        "Altitude(m)": 606515.7286858518,
        "Argument of Periapsis(deg)": 0.0016670313461274247,
        "Eccentricity": 0.0,
        "Inclination(deg)": 60.0,
        "Latitude(deg)": -8.725940003565434,
        "Longitude(deg)": -55.58835615539281,
        "Mean Anomaly(deg)": -170.0783016726107,
        "RAAN(deg)": 219.9932792137641,
        "Satellite Name": "Test1 979",
        "Satellite Number": 979,
        "Semi-Major Axis(m)": 6980739.136638005,
        "Time(s)": 160
    },
    {
        "Altitude(m)": 606637.1939676335,
        "Argument of Periapsis(deg)": 0.0017712208052603888,
        "Eccentricity": 0.0,
        "Inclination(deg)": 60.0,
        "Latitude(deg)": -9.263776885357677,
        "Longitude(deg)": -55.312667528658864,
        "Mean Anomaly(deg)": -169.45819552714886,
        "RAAN(deg)": 219.99285916462438,
        "Satellite Name": "Test1 979",
        "Satellite Number": 979,
        "Semi-Major Axis(m)": 6980739.136638005,
        "Time(s)": 170
    },
    {
        "Altitude(m)": 606761.5132304358,
        "Argument of Periapsis(deg)": 0.001875410264393353,
        "Eccentricity": 0.0,
        "Inclination(deg)": 60.0,
        "Latitude(deg)": -9.801301707890323,
        "Longitude(deg)": -55.03602271124269,
        "Mean Anomaly(deg)": -168.83808938168704,
        "RAAN(deg)": 219.99243911548467,
        "Satellite Name": "Test1 979",
        "Satellite Number": 979,
        "Semi-Major Axis(m)": 6980739.136638005,
        "Time(s)": 180
    },
    {
        "Altitude(m)": 606888.6519403863,
        "Argument of Periapsis(deg)": 0.0019795997235263173,
        "Eccentricity": 0.0,
        "Inclination(deg)": 60.0,
        "Latitude(deg)": -10.338495865106056,
        "Longitude(deg)": -54.758361855458496,
        "Mean Anomaly(deg)": -168.21798323622522,
        "RAAN(deg)": 219.9920190663449,
        "Satellite Name": "Test1 979",
        "Satellite Number": 979,
        "Semi-Major Axis(m)": 6980739.136638005,
        "Time(s)": 190
    }
]